{
  "type": "FeatureCollection",
  "features": [
    {
      "type": "Feature",
      "properties": {
        "norad_id": 66641,
        "name": "STARLINK-35923",
        "group": "last-30-days",
        "lat": 52.27444423038295,
        "lon": -39.581337303980035,
        "alt_km": 339.6396841696669,
        "timestamp": "2025-12-06T18:50:08.956874+00:00",
        "meta_object_name": "STARLINK-35923",
        "meta_object_id": "2025-271AA",
        "meta_epoch": "2025-12-06T06:00:02.000160",
        "meta_mean_motion": 15.7417295,
        "meta_eccentricity": 4.033e-05,
        "meta_inclination": 53.1568,
        "meta_ra_of_asc_node": 218.8302,
        "meta_arg_of_pericenter": 60.0221,
        "meta_mean_anomaly": 246.0897,
        "meta_ephemeris_type": 0,
        "meta_classification_type": "U",
        "meta_norad_cat_id": 66641,
        "meta_element_set_no": 999,
        "meta_rev_at_epoch": 320,
        "meta_bstar": 0.0001956498,
        "meta_mean_motion_dot": 0.000281,
        "meta_mean_motion_ddot": 0,
        "tle_line1": "1 66641U 25271AA  25340.25002315  .00028100  00000+0  19565-3 0  9991",
        "tle_line2": "2 66641  53.1568 218.8302 0000403  60.0221 246.0897 15.74172950  3207"
      },
      "geometry": {
        "type": "Point",
        "coordinates": [
          -39.581337303980035,
          52.27444423038295
        ]
      }
    },
    {
      "type": "Feature",
      "properties": {
        "norad_id": 66642,
        "name": "STARLINK-35926",
        "group": "last-30-days",
        "lat": 52.61142386632079,
        "lon": -42.66593956642635,
        "alt_km": 339.50436789628293,
        "timestamp": "2025-12-06T18:50:08.956886+00:00",
        "meta_object_name": "STARLINK-35926",
        "meta_object_id": "2025-271AB",
        "meta_epoch": "2025-12-06T06:00:02.000160",
        "meta_mean_motion": 15.7417623,
        "meta_eccentricity": 4.444e-05,
        "meta_inclination": 53.1573,
        "meta_ra_of_asc_node": 218.835,
        "meta_arg_of_pericenter": 61.2283,
        "meta_mean_anomaly": 242.9503,
        "meta_ephemeris_type": 0,
        "meta_classification_type": "U",
        "meta_norad_cat_id": 66642,
        "meta_element_set_no": 999,
        "meta_rev_at_epoch": 296,
        "meta_bstar": 0.0003088392,
        "meta_mean_motion_dot": 0.00044817,
        "meta_mean_motion_ddot": 0,
        "tle_line1": "1 66642U 25271AB  25340.25002315  .00044817  00000+0  30884-3 0  9992",
        "tle_line2": "2 66642  53.1573 218.8350 0000444  61.2283 242.9503 15.74176230  2969"
      },
      "geometry": {
        "type": "Point",
        "coordinates": [
          -42.66593956642635,
          52.61142386632079
        ]
      }
    },
    {
      "type": "Feature",
      "properties": {
        "norad_id": 66643,
        "name": "STARLINK-35918",
        "group": "last-30-days",
        "lat": 53.04041901742483,
        "lon": -49.005558361203676,
        "alt_km": 338.80592692257324,
        "timestamp": "2025-12-06T18:50:08.956896+00:00",
        "meta_object_name": "STARLINK-35918",
        "meta_object_id": "2025-271AC",
        "meta_epoch": "2025-12-06T06:00:02.000160",
        "meta_mean_motion": 15.74180719,
        "meta_eccentricity": 0.00014743,
        "meta_inclination": 53.1574,
        "meta_ra_of_asc_node": 218.8434,
        "meta_arg_of_pericenter": 85.2972,
        "meta_mean_anomaly": 215.0599,
        "meta_ephemeris_type": 0,
        "meta_classification_type": "U",
        "meta_norad_cat_id": 66643,
        "meta_element_set_no": 999,
        "meta_rev_at_epoch": 320,
        "meta_bstar": 5.6110333e-05,
        "meta_mean_motion_dot": 7.592e-05,
        "meta_mean_motion_ddot": 0,
        "tle_line1": "1 66643U 25271AC  25340.25002315  .00007592  00000+0  56110-4 0  9993",
        "tle_line2": "2 66643  53.1574 218.8434 0001474  85.2972 215.0599 15.74180719  3200"
      },
      "geometry": {
        "type": "Point",
        "coordinates": [
          -49.005558361203676,
          53.04041901742483
        ]
      }
    },
    {
      "type": "Feature",
      "properties": {
        "norad_id": 66644,
        "name": "STARLINK-35938",
        "group": "last-30-days",
        "lat": 52.86837539048583,
        "lon": -45.825504483574086,
        "alt_km": 339.59782217646625,
        "timestamp": "2025-12-06T18:50:08.956905+00:00",
        "meta_object_name": "STARLINK-35938",
        "meta_object_id": "2025-271AD",
        "meta_epoch": "2025-12-06T06:00:02.000160",
        "meta_mean_motion": 15.74223461,
        "meta_eccentricity": 3.575e-05,
        "meta_inclination": 53.1571,
        "meta_ra_of_asc_node": 218.8392,
        "meta_arg_of_pericenter": 83.3955,
        "meta_mean_anomaly": 218.8518,
        "meta_ephemeris_type": 0,
        "meta_classification_type": "U",
        "meta_norad_cat_id": 66644,
        "meta_element_set_no": 999,
        "meta_rev_at_epoch": 320,
        "meta_bstar": -0.00026682629,
        "meta_mean_motion_dot": -0.00039578,
        "meta_mean_motion_ddot": 0,
        "tle_line1": "1 66644U 25271AD  25340.25002315 -.00039578  00000+0 -26683-3 0  9996",
        "tle_line2": "2 66644  53.1571 218.8392 0000357  83.3955 218.8518 15.74223461  3204"
      },
      "geometry": {
        "type": "Point",
        "coordinates": [
          -45.825504483574086,
          52.86837539048583
        ]
      }
    },
    {
      "type": "Feature",
      "properties": {
        "norad_id": 66645,
        "name": "SHENZHOU-22",
        "group": "last-30-days",
        "lat": 15.264145174794429,
        "lon": -145.15188685778335,
        "alt_km": 394.9219753124744,
        "timestamp": "2025-12-06T18:50:08.956915+00:00",
        "meta_object_name": "SHENZHOU-22",
        "meta_object_id": "2025-272A",
        "meta_epoch": "2025-12-06T05:51:59.537376",
        "meta_mean_motion": 15.58781586,
        "meta_eccentricity": 0.00096041,
        "meta_inclination": 41.4683,
        "meta_ra_of_asc_node": 56.1283,
        "meta_arg_of_pericenter": 339.9163,
        "meta_mean_anomaly": 20.1296,
        "meta_ephemeris_type": 0,
        "meta_classification_type": "U",
        "meta_norad_cat_id": 66645,
        "meta_element_set_no": 999,
        "meta_rev_at_epoch": 26295,
        "meta_bstar": 0.00042196391,
        "meta_mean_motion_dot": 0.00033378,
        "meta_mean_motion_ddot": 0,
        "tle_line1": "1 66645U 25272A   25340.24443909  .00033378  00000+0  42196-3 0  9992",
        "tle_line2": "2 66645  41.4683  56.1283 0009604 339.9163  20.1296 15.58781586262951"
      },
      "geometry": {
        "type": "Point",
        "coordinates": [
          -145.15188685778335,
          15.264145174794429
        ]
      }
    },
    {
      "type": "Feature",
      "properties": {
        "norad_id": 66646,
        "name": "CZ-2F R/B",
        "group": "last-30-days",
        "lat": -16.92143355951908,
        "lon": -112.68609767637096,
        "alt_km": 159.59931205992234,
        "timestamp": "2025-12-06T18:50:08.956925+00:00",
        "meta_object_name": "CZ-2F R/B",
        "meta_object_id": "2025-272B",
        "meta_epoch": "2025-12-06T13:35:24.857088",
        "meta_mean_motion": 16.31678706,
        "meta_eccentricity": 0.0043357,
        "meta_inclination": 41.4545,
        "meta_ra_of_asc_node": 48.6295,
        "meta_arg_of_pericenter": 218.7676,
        "meta_mean_anomaly": 141.0074,
        "meta_ephemeris_type": 0,
        "meta_classification_type": "U",
        "meta_norad_cat_id": 66646,
        "meta_element_set_no": 999,
        "meta_rev_at_epoch": 184,
        "meta_bstar": 0.00051304,
        "meta_mean_motion_dot": 0.04092522,
        "meta_mean_motion_ddot": 7.8194e-06,
        "tle_line1": "1 66646U 25272B   25340.56625992  .04092522  78194-5  51304-3 0  9998",
        "tle_line2": "2 66646  41.4545  48.6295 0043357 218.7676 141.0074 16.31678706  1841"
      },
      "geometry": {
        "type": "Point",
        "coordinates": [
          -112.68609767637096,
          -16.92143355951908
        ]
      }
    },
    {
      "type": "Feature",
      "properties": {
        "norad_id": 66647,
        "name": "COSMOS 2597 (RODNIK-S 22)",
        "group": "last-30-days",
        "lat": 42.16746901820764,
        "lon": 103.29355488176574,
        "alt_km": 1500.9075042467557,
        "timestamp": "2025-12-06T18:50:08.956935+00:00",
        "meta_object_name": "COSMOS 2597 (RODNIK-S 22)",
        "meta_object_id": "2025-273A",
        "meta_epoch": "2025-12-06T06:29:53.346048",
        "meta_mean_motion": 12.41951183,
        "meta_eccentricity": 0.00080397,
        "meta_inclination": 82.498,
        "meta_ra_of_asc_node": 290.4664,
        "meta_arg_of_pericenter": 304.4804,
        "meta_mean_anomaly": 55.5515,
        "meta_ephemeris_type": 0,
        "meta_classification_type": "U",
        "meta_norad_cat_id": 66647,
        "meta_element_set_no": 999,
        "meta_rev_at_epoch": 133,
        "meta_bstar": 0.00015847661,
        "meta_mean_motion_dot": 3.1e-07,
        "meta_mean_motion_ddot": 0,
        "tle_line1": "1 66647U 25273A   25340.27075632  .00000031  00000+0  15848-3 0  9996",
        "tle_line2": "2 66647  82.4980 290.4664 0008039 304.4804  55.5515 12.41951183  1334"
      },
      "geometry": {
        "type": "Point",
        "coordinates": [
          103.29355488176574,
          42.16746901820764
        ]
      }
    }
  ]
}